STARLINK-1564
1 26058C 20055AH  21325.16960250  .00000136  00000-0  91044-5 0  3253
2 26058  53.0542 322.4598 0001714  58.4813  68.0481 15.06406937    18
